IRIDIUM 144             
1 43249U 18030A   23240.86596744  .00000322  00000+0  10786-3 0  9995
2 43249  86.4022 358.0906 0002289  88.1171 272.0287 14.34218251283466
IRIDIUM 149             
1 43250U 18030B   23240.87231060  .00000314  00000+0  10490-3 0  9998
2 43250  86.4020 358.0663 0002197  88.7362 271.4085 14.34218734283489
IRIDIUM 157             
1 43251U 18030C   23240.89133738  .00000330  00000+0  11084-3 0  9992
2 43251  86.4022 358.0888 0002136  98.0921 262.0518 14.34218735283465
IRIDIUM 140             
1 43252U 18030D   23240.84061265  .00000315  00000+0  10535-3 0  9996
2 43252  86.4022 358.1250 0002407  88.7542 271.3930 14.34219066283511
IRIDIUM 145             
1 43253U 18030E   23240.82791257  .00000322  00000+0  10807-3 0  9996
2 43253  86.4023 358.1048 0002172  81.2091 278.9351 14.34218464283447
IRIDIUM 146             
1 43254U 18030F   23240.87865232  .00000311  00000+0  10381-3 0  9992
2 43254  86.4022 358.0992 0002096  88.9932 271.1504 14.34218759283461
IRIDIUM 148             
1 43255U 18030G   23240.84692334  .00000326  00000+0  10939-3 0  9996
2 43255  86.4016 358.1390 0001591  93.7991 266.3387 14.34217722283493
IRIDIUM 142             
1 43256U 18030H   23240.88499575  .00000320  00000+0  10708-3 0  9991
2 43256  86.4019 358.0507 0002079  91.7865 268.3569 14.34219846283466
